[{"OBJECT_NAME":"STARLINK-3185","OBJECT_ID":"2022-005AS","EPOCH":"2026-03-09T21:43:26.450400","MEAN_MOTION":15.0883806,"ECCENTRICITY":0.0001332,"INCLINATION":53.217,"RA_OF_ASC_NODE":298.167,"ARG_OF_PERICENTER":93.1199,"MEAN_ANOMALY":266.9945,"EPHEMERIS_TYPE":0,"CLASSIFICATION_TYPE":"U","NORAD_CAT_ID":51144,"ELEMENT_SET_NO":999,"REV_AT_EPOCH":22877,"BSTAR":1.6166558e-5,"MEAN_MOTION_DOT":-3.1e-7,"MEAN_MOTION_DDOT":0},{"OBJECT_NAME":"LEMUR-2-KREMPEL-BRO2","OBJECT_ID":"2025-061C","EPOCH":"2026-03-09T20:43:52.091904","MEAN_MOTION":15.13192951,"ECCENTRICITY":0.00179248,"INCLINATION":97.5616,"RA_OF_ASC_NODE":45.5365,"ARG_OF_PERICENTER":236.8576,"MEAN_ANOMALY":123.0936,"EPHEMERIS_TYPE":0,"CLASSIFICATION_TYPE":"U","NORAD_CAT_ID":63353,"ELEMENT_SET_NO":999,"REV_AT_EPOCH":5258,"BSTAR":0.00044346981,"MEAN_MOTION_DOT":7.837e-5,"MEAN_MOTION_DDOT":0}]
