STARLINK-3185           
1 51144U 22005AS  26068.90516725 -.00000031  00000+0  16167-4 0  9990
2 51144  53.2170 298.1670 0001332  93.1199 266.9945 15.08838060228775
LEMUR-2-KREMPEL-BRO2    
1 63353U 25061C   26068.86379736  .00007837  00000+0  44347-3 0  9994
2 63353  97.5616  45.5365 0017924 236.8576 123.0936 15.13192951 52585
